      'RA_OF_ASC_NODE': 17.7306,
      'ARG_OF_PERICENTER': 16.3133,
      'MEAN_ANOMALY': 312.8476,
      'EPHEMERIS_TYPE': 0,
      'CLASSIFICATION_TYPE': 'U',
      'NORAD_CAT_ID': 45237,
      'ELEMENT_SET_NO': 999,
      'REV_AT_EPOCH': 1985,
      'BSTAR': 0.07387,
      'MEAN_MOTION_DOT': 0.02090392,
      'MEAN_MOTION_DDOT': 0,
      'SEMIMAJOR_AXIS': 6868.425,
      'PERIOD': 94.415,
      'APOAPSIS': 492.335,
      'PERIAPSIS': 488.246,
      'OBJECT_TYPE': 'PAYLOAD',
      'RCS_SIZE': 'LARGE',
      'COUNTRY_CODE': 'US',
      'LAUNCH_DATE': '2020-02-17',
      'SITE': 'AFETR',
      'DECAY_DATE': null,
      'DECAYED': 0,
      'FILE': 2770053,
      'GP_ID': 156071187,
      'TLE_LINE0': '0 STARLINK-1270',
      'TLE_LINE1':
          '1 45237U 20012BM  20173.33335648  .02090392  00000-0  73867-1 0  9991',
      'TLE_LINE2':
          '2 45237  52.9960  17.7306 0002977  16.3133 312.8476 15.25165387 19857'
    },
    'version': 'v1.0',
    'launch': '5eb87d41ffd86e000604b383',
    'id': '5eed7715096e590006985742'
  },
  {
    'spaceTrack': {
      'CCSDS_OMM_VERS': '2.0',
      'COMMENT': 'GENERATED VIA SPACE-TRACK.ORG API',
      'CREATION_DATE': '2020-06-21 14:46:10',
      'ORIGINATOR': '18 SPCS',
      'OBJECT_NAME': 'STARLINK-1313',
      'OBJECT_ID': '2020-019E',
      'CENTER_NAME': 'EARTH',
      'REF_FRAME': 'TEME',
      'TIME_SYSTEM': 'UTC',
      'MEAN_ELEMENT_THEORY': 'SGP4',
      'EPOCH': '2020-06-21 14:00:01.999872',
      'MEAN_MOTION': 15.42176104,
      'ECCENTRICITY': 0.0001229,
      'INCLINATION': 53.001,
      'RA_OF_ASC_NODE': 148.7317,
      'ARG_OF_PERICENTER': 40.9228,
      'MEAN_ANOMALY': 358.206,
      'EPHEMERIS_TYPE': 0,
      'CLASSIFICATION_TYPE': 'U',
      'NORAD_CAT_ID': 45364,
      'ELEMENT_SET_NO': 999,
      'REV_AT_EPOCH': 1554,
      'BSTAR': -0.00067,
      'MEAN_MOTION_DOT': -0.00029493,
      'MEAN_MOTION_DDOT': 0,
      'SEMIMAJOR_AXIS': 6817.825,
      'PERIOD': 93.374,
      'APOAPSIS': 440.528,
      'PERIAPSIS': 438.852,
      'OBJECT_TYPE': 'PAYLOAD',
      'RCS_SIZE': 'LARGE',
      'COUNTRY_CODE': 'US',
      'LAUNCH_DATE': '2020-03-18',
      'SITE': 'AFETR',
      'DECAY_DATE': null,
      'DECAYED': 0,
      'FILE': 2770092,
      'GP_ID': 156072221,
      'TLE_LINE0': '0 STARLINK-1313',
      'TLE_LINE1':
          '1 45364U 20019E   20173.58335648 -.00029493  00000-0 -67043-3 0  9991',
      'TLE_LINE2':
          '2 45364  53.0011 148.7317 0001229  40.9228 358.2060 15.42176104 15544'
    },
    'version': 'v1.0',
    'launch': '5eb87d43ffd86e000604b385',
    'id': '5eed7715096e590006985743'
  },
  {
    'spaceTrack': {
      'CCSDS_OMM_VERS': '2.0',
      'COMMENT': 'GENERATED VIA SPACE-TRACK.ORG API',
      'CREATION_DATE': '2020-06-21 10:06:09',
      'ORIGINATOR': '18 SPCS',
      'OBJECT_NAME': 'STARLINK-1279',
      'OBJECT_ID': '2020-019A',
      'CENTER_NAME': 'EARTH',
      'REF_FRAME': 'TEME',
      'TIME_SYSTEM': 'UTC',
      'MEAN_ELEMENT_THEORY': 'SGP4',
      'EPOCH': '2020-06-21 08:00:01.999872',
      'MEAN_MOTION': 15.42162707,
      'ECCENTRICITY': 0.0001328,
      'INCLINATION': 53.003,
      'RA_OF_ASC_NODE': 149.953,
      'ARG_OF_PERICENTER': 44.8675,
      'MEAN_ANOMALY': 33.6037,
      'EPHEMERIS_TYPE': 0,
      'CLASSIFICATION_TYPE': 'U',
      'NORAD_CAT_ID': 45360,
      'ELEMENT_SET_NO': 999,
      'REV_AT_EPOCH': 1550,
      'BSTAR': 0.0007,
      'MEAN_MOTION_DOT': 0.00030245,
      'MEAN_MOTION_DDOT': 0,
      'SEMIMAJOR_AXIS': 6817.864,
      'PERIOD': 93.375,
      'APOAPSIS': 440.635,
      'PERIAPSIS': 438.824,
      'OBJECT_TYPE': 'PAYLOAD',
      'RCS_SIZE': 'LARGE',
      'COUNTRY_CODE': 'US',
      'LAUNCH_DATE': '2020-03-18',
      'SITE': 'AFETR',
      'DECAY_DATE': null,
      'DECAYED': 0,
      'FILE': 2770051,
      'GP_ID': 156071197,
      'TLE_LINE0': '0 STARLINK-1279',
      'TLE_LINE1':
          '1 45360U 20019A   20173.33335648  .00030245  00000-0  70158-3 0  9996',
      'TLE_LINE2':
          '2 45360  53.0026 149.9530 0001328  44.8675  33.6037 15.42162707 15503'
    },
    'version': 'v1.0',
    'launch': '5eb87d43ffd86e000604b385',
    'id': '5eed7715096e590006985744'
  },
  {
    'spaceTrack': {
      'CCSDS_OMM_VERS': '2.0',
      'COMMENT': 'GENERATED VIA SPACE-TRACK.ORG API',
      'CREATION_DATE': '2020-06-21 10:06:09',
      'ORIGINATOR': '18 SPCS',
      'OBJECT_NAME': 'STARLINK-1188',
      'OBJECT_ID': '2020-012AU',
      'CENTER_NAME': 'EARTH',
      'REF_FRAME': 'TEME',
      'TIME_SYSTEM': 'UTC',
      'MEAN_ELEMENT_THEORY': 'SGP4',
      'EPOCH': '2020-06-21 08:00:01.999872',
      'MEAN_MOTION': 15.24622165,
      'ECCENTRICITY': 0.0002605,
      'INCLINATION': 52.995,
      'RA_OF_ASC_NODE': 17.7153,
      'ARG_OF_PERICENTER': 343.7555,
      'MEAN_ANOMALY': 306.4684,
      'EPHEMERIS_TYPE': 0,
      'CLASSIFICATION_TYPE': 'U',
      'NORAD_CAT_ID': 45220,
      'ELEMENT_SET_NO': 999,
      'REV_AT_EPOCH': 1985,
      'BSTAR': 0.08683,
      'MEAN_MOTION_DOT': 0.02413122,
      'MEAN_MOTION_DDOT': 0,
      'SEMIMAJOR_AXIS': 6870.057,
      'PERIOD': 94.449,
      'APOAPSIS': 493.711,
      'PERIAPSIS': 490.132,
      'OBJECT_TYPE': 'PAYLOAD',
      'RCS_SIZE': 'LARGE',
      'COUNTRY_CODE': 'US',
      'LAUNCH_DATE': '2020-02-17',
      'SITE': 'AFETR',
      'DECAY_DATE': null,
      'DECAYED': 0,
      'FILE': 2770048,
      'GP_ID': 156071174,
      'TLE_LINE0': '0 STARLINK-1188',
      'TLE_LINE1':
          '1 45220U 20012AU  20173.33335648  .02413122  00000-0  86833-1 0  9990',
      'TLE_LINE2':
          '2 45220  52.9949  17.7153 0002605 343.7555 306.4684 15.24622165 19850'
    },
    'version': 'v1.0',
    'launch': '5eb87d41ffd86e000604b383',
    'id': '5eed7715096e590006985745'
  },
  {
    'spaceTrack': {
      'CCSDS_OMM_VERS': '2.0',
      'COMMENT': 'GENERATED VIA SPACE-TRACK.ORG API',
      'CREATION_DATE': '2020-06-21 10:06:09',
      'ORIGINATOR': '18 SPCS',
      'OBJECT_NAME': 'STARLINK-1221',
      'OBJECT_ID': '2020-012BB',
      'CENTER_NAME': 'EARTH',
      'REF_FRAME': 'TEME',
      'TIME_SYSTEM': 'UTC',
      'MEAN_ELEMENT_THEORY': 'SGP4',
      'EPOCH': '2020-06-21 08:00:01.999872',
      'MEAN_MOTION': 15.24343659,
      'ECCENTRICITY': 0.0002038,
      'INCLINATION': 52.996,
      'RA_OF_ASC_NODE': 17.7538,
      'ARG_OF_PERICENTER': 308.343,
      'MEAN_ANOMALY': 313.8375,
      'EPHEMERIS_TYPE': 0,
      'CLASSIFICATION_TYPE': 'U',
      'NORAD_CAT_ID': 45227,
      'ELEMENT_SET_NO': 999,
      'REV_AT_EPOCH': 1982,
      'BSTAR': 0.09522,
      'MEAN_MOTION_DOT': 0.02652626,
      'MEAN_MOTION_DDOT': 0,
      'SEMIMAJOR_AXIS': 6870.894,
      'PERIOD': 94.466,
      'APOAPSIS': 494.159,
      'PERIAPSIS': 491.358,
      'OBJECT_TYPE': 'PAYLOAD',
      'RCS_SIZE': 'LARGE',
      'COUNTRY_CODE': 'US',
      'LAUNCH_DATE': '2020-02-17',
      'SITE': 'AFETR',
      'DECAY_DATE': null,
      'DECAYED': 0,
      'FILE': 2770050,
      'GP_ID': 156071327,
      'TLE_LINE0': '0 STARLINK-1221',
      'TLE_LINE1':
          '1 45227U 20012BB  20173.33335648  .02652626  00000-0  95216-1 0  9996',
      'TLE_LINE2':
          '2 45227  52.9955  17.7538 0002038 308.3430 313.8375 15.24343659 19824'
    },
    'version': 'v1.0',
    'launch': '5eb87d41ffd86e000604b383',
    'id': '5eed7715096e590006985746'
  },
  {
    'spaceTrack': {
      'CCSDS_OMM_VERS': '2.0',
      'COMMENT': 'GENERATED VIA SPACE-TRACK.ORG API',
      'CREATION_DATE': '2020-06-21 10:06:09',
      'ORIGINATOR': '18 SPCS',
      'OBJECT_NAME': 'STARLINK-1254',
      'OBJECT_ID': '2020-012AQ',
      'CENTER_NAME': 'EARTH',
      'REF_FRAME': 'TEME',
      'TIME_SYSTEM': 'UTC',
      'MEAN_ELEMENT_THEORY': 'SGP4',
      'EPOCH': '2020-06-21 08:00:01.999872',
      'MEAN_MOTION': 15.05602224,
      'ECCENTRICITY': 0.0001979,
      'INCLINATION': 53,
      'RA_OF_ASC_NODE': 37.1198,
      'ARG_OF_PERICENTER': 79.7302,
      'MEAN_ANOMALY': 303.5419,
      'EPHEMERIS_TYPE': 0,
      'CLASSIFICATION_TYPE': 'U',
      'NORAD_CAT_ID': 45216,
      'ELEMENT_SET_NO': 999,
      'REV_AT_EPOCH': 1958,
      'BSTAR': -0.00196,
      'MEAN_MOTION_DOT': -0.00028801,
      'MEAN_MOTION_DDOT': 0,
      'SEMIMAJOR_AXIS': 6927.794,
      'PERIOD': 95.642,
      'APOAPSIS': 551.03,
      'PERIAPSIS': 548.288,
      'OBJECT_TYPE': 'PAYLOAD',
      'RCS_SIZE': 'LARGE',
      'COUNTRY_CODE': 'US',
      'LAUNCH_DATE': '2020-02-17',
      'SITE': 'AFETR',
      'DECAY_DATE': null,
      'DECAYED': 0,
      'FILE': 2770053,
      'GP_ID': 156071332,
      'TLE_LINE0': '0 STARLINK-1254',
      'TLE_LINE1':
          '1 45216U 20012AQ  20173.33335648 -.00028801  00000-0 -19643-2 0  9997',
      'TLE_LINE2':
          '2 45216  52.9996  37.1198 0001979  79.7302 303.5419 15.05602224 19588'
    },
    'version': 'v1.0',
    'launch': '5eb87d41ffd86e000604b383',
    'id': '5eed7715096e590006985747'
  },
  {
    'spaceTrack': {
      'CCSDS_OMM_VERS': '2.0',
      'COMMENT': 'GENERATED VIA SPACE-TRACK.ORG API',
      'CREATION_DATE': '2020-06-21 10:06:09',
      'ORIGINATOR': '18 SPCS',
      'OBJECT_NAME': 'STARLINK-1105',
      'OBJECT_ID': '2020-012AS',
      'CENTER_NAME': 'EARTH',
      'REF_FRAME': 'TEME',
      'TIME_SYSTEM': 'UTC',
      'MEAN_ELEMENT_THEORY': 'SGP4',
      'EPOCH': '2020-06-21 08:00:01.999872',
      'MEAN_MOTION': 15.26783748,
      'ECCENTRICITY': 0.0004016,
      'INCLINATION': 52.995,
      'RA_OF_ASC_NODE': 17.761,
      'ARG_OF_PERICENTER': 97.8873,
      'MEAN_ANOMALY': 333.009,
      'EPHEMERIS_TYPE': 0,
      'CLASSIFICATION_TYPE': 'U',
      'NORAD_CAT_ID': 45218,
      'ELEMENT_SET_NO': 999,
      'REV_AT_EPOCH': 1985,
      'BSTAR': 0.02321,
      'MEAN_MOTION_DOT': 0.00660212,
      'MEAN_MOTION_DDOT': 0,
      'SEMIMAJOR_AXIS': 6863.571,
      'PERIOD': 94.315,
      'APOAPSIS': 488.192,
      'PERIAPSIS': 482.679,
      'OBJECT_TYPE': 'PAYLOAD',
      'RCS_SIZE': 'LARGE',
      'COUNTRY_CODE': 'US',
      'LAUNCH_DATE': '2020-02-17',
      'SITE': 'AFETR',
